*******************************************************************************
Ephemeris / WWW_USER Mon Jul 15 19:00:10 2024 Pasadena, USA      / Horizons    
*******************************************************************************
Target body name: (2018 RP1)                      {source: JPL#4}
Center body name: Earth (399)                     {source: DE441}
Center-site name: Gemini South Obs., Cerro Pachon
*******************************************************************************
Start time      : A.D. 2018-Dec-04 23:42:00.0000 UT      
Stop  time      : A.D. 2018-Dec-05 09:24:00.0000 UT      
Step-size       : 1 minutes
*******************************************************************************
Target pole/equ : undefined
Target radii    : undefined                                                    
Center geodetic : 289.2634, -30.2406227, 2.71233  {E-lon(deg),Lat(deg),Alt(km)}
Center cylindric: 289.2634,5517.21435,-3194.81213 {E-lon(deg),Dxy(km),Dz(km)}
Center pole/equ : ITRF93                          {East-longitude positive}
Center radii    : 6378.137, 6378.137, 6356.752 km {Equator_a, b, pole_c}       
Target primary  : Sun
Vis. interferer : MOON (R_eq= 1737.400) km        {source: DE441}
Rel. light bend : Sun                             {source: DE441}
Rel. lght bnd GM: 1.3271E+11 km^3/s^2                                          
Small-body perts: Yes                             {source: SB441-N16}
Atmos refraction: NO (AIRLESS)
RA format       : HMS
Time format     : CAL 
Calendar mode   : Mixed Julian/Gregorian
RTS-only print  : NO       
EOP file        : eop.240715.p241008                                           
EOP coverage    : DATA-BASED 1962-JAN-20 TO 2024-JUL-15. PREDICTS-> 2024-OCT-07
Units conversion: 1 au= 149597870.700 km, c= 299792.458 km/s, 1 day= 86400.0 s 
Table cut-offs 1: Elevation (-90.0deg=NO ),Airmass (>38.000=NO), Daylight (YES)
Table cut-offs 2: Solar elongation (  0.0,180.0=NO ),Local Hour Angle( 0.0=NO )
Table cut-offs 3: RA/DEC angular rate (     0.0=NO )                           
*******************************************************************************
Initial IAU76/J2000 heliocentric ecliptic osculating elements (au, days, deg.):
  EPOCH=  2458376.5 ! 2018-Sep-15.00 (TDB)         Residual RMS= .12525        
   EC= .3382936082205208   QR= .9576766169446216   TP= 2458412.3293739939      
   OM= 161.903422202901    W=  234.5704247756858   IN= 9.466091569921099       
  Equivalent ICRF heliocentric cartesian coordinates (au, au/d):
   X= 1.017940821946709E+00  Y=-7.278189102440286E-02  Z=-7.249995171787897E-02
  VX=-1.754817228708964E-03 VY= 1.862872143473751E-02 VZ= 4.887370356508847E-03
Asteroid physical parameters (km, seconds, rotational period in hours):        
   GM= n.a.                RAD= n.a.               ROTPER= n.a.                
   H= 24.3                 G= .150                 B-V= n.a.                   
                           ALBEDO= n.a.            STYP= n.a.                  
*******************************************************************************
 Date__(UT)__HR:MN     R.A._________(ICRF)_________DEC
******************************************************
$$SOE
 2018-Dec-05 05:51     09 52 28.508749 -20 07 59.86230
 2018-Dec-05 05:52     09 52 28.540948 -20 07 59.71251
 2018-Dec-05 05:53     09 52 28.573119 -20 07 59.56262
 2018-Dec-05 05:54     09 52 28.605263 -20 07 59.41264
 2018-Dec-05 05:55     09 52 28.637378 -20 07 59.26257
 2018-Dec-05 05:56     09 52 28.669466 -20 07 59.11240
 2018-Dec-05 05:57     09 52 28.701526 -20 07 58.96215
 2018-Dec-05 05:58     09 52 28.733558 -20 07 58.81179
 2018-Dec-05 05:59     09 52 28.765563 -20 07 58.66135
 2018-Dec-05 06:00     09 52 28.797541 -20 07 58.51080
 2018-Dec-05 06:01     09 52 28.829491 -20 07 58.36017
 2018-Dec-05 06:02     09 52 28.861414 -20 07 58.20943
 2018-Dec-05 06:03     09 52 28.893310 -20 07 58.05860
 2018-Dec-05 06:04     09 52 28.925179 -20 07 57.90767
 2018-Dec-05 06:05     09 52 28.957020 -20 07 57.75665
 2018-Dec-05 06:06     09 52 28.988835 -20 07 57.60552
 2018-Dec-05 06:07     09 52 29.020623 -20 07 57.45430
 2018-Dec-05 06:08     09 52 29.052384 -20 07 57.30298
 2018-Dec-05 06:09     09 52 29.084118 -20 07 57.15155
 2018-Dec-05 06:10     09 52 29.115826 -20 07 57.00003
 2018-Dec-05 06:11     09 52 29.147507 -20 07 56.84840
 2018-Dec-05 06:12     09 52 29.179161 -20 07 56.69668
 2018-Dec-05 06:13     09 52 29.210790 -20 07 56.54485
 2018-Dec-05 06:14     09 52 29.242392 -20 07 56.39291
 2018-Dec-05 06:15     09 52 29.273968 -20 07 56.24088
 2018-Dec-05 06:16     09 52 29.305517 -20 07 56.08874
 2018-Dec-05 06:17     09 52 29.337041 -20 07 55.93650
 2018-Dec-05 06:18     09 52 29.368539 -20 07 55.78415
 2018-Dec-05 06:19     09 52 29.400011 -20 07 55.63169
 2018-Dec-05 06:20     09 52 29.431457 -20 07 55.47913
 2018-Dec-05 06:21     09 52 29.462878 -20 07 55.32647
 2018-Dec-05 06:22     09 52 29.494273 -20 07 55.17370
 2018-Dec-05 06:23     09 52 29.525642 -20 07 55.02081
 2018-Dec-05 06:24     09 52 29.556986 -20 07 54.86783
 2018-Dec-05 06:25     09 52 29.588305 -20 07 54.71473
 2018-Dec-05 06:26     09 52 29.619599 -20 07 54.56152
 2018-Dec-05 06:27     09 52 29.650867 -20 07 54.40821
 2018-Dec-05 06:28     09 52 29.682111 -20 07 54.25478
 2018-Dec-05 06:29     09 52 29.713329 -20 07 54.10125
 2018-Dec-05 06:30     09 52 29.744523 -20 07 53.94760
 2018-Dec-05 06:31     09 52 29.775692 -20 07 53.79384
 2018-Dec-05 06:32     09 52 29.806836 -20 07 53.63997
 2018-Dec-05 06:33     09 52 29.837956 -20 07 53.48598
 2018-Dec-05 06:34     09 52 29.869051 -20 07 53.33189
 2018-Dec-05 06:35     09 52 29.900122 -20 07 53.17768
 2018-Dec-05 06:36     09 52 29.931168 -20 07 53.02335
 2018-Dec-05 06:37     09 52 29.962191 -20 07 52.86892
 2018-Dec-05 06:38     09 52 29.993189 -20 07 52.71436
 2018-Dec-05 06:39     09 52 30.024163 -20 07 52.55969
 2018-Dec-05 06:40     09 52 30.055114 -20 07 52.40491
 2018-Dec-05 06:41     09 52 30.086040 -20 07 52.25001
 2018-Dec-05 06:42     09 52 30.116943 -20 07 52.09499
 2018-Dec-05 06:43     09 52 30.147822 -20 07 51.93985
 2018-Dec-05 06:44     09 52 30.178678 -20 07 51.78460
 2018-Dec-05 06:45     09 52 30.209511 -20 07 51.62923
 2018-Dec-05 06:46     09 52 30.240320 -20 07 51.47374
 2018-Dec-05 06:47     09 52 30.271106 -20 07 51.31813
 2018-Dec-05 06:48     09 52 30.301869 -20 07 51.16240
 2018-Dec-05 06:49     09 52 30.332609 -20 07 51.00655
 2018-Dec-05 06:50     09 52 30.363326 -20 07 50.85058
 2018-Dec-05 06:51     09 52 30.394020 -20 07 50.69449
 2018-Dec-05 06:52     09 52 30.424691 -20 07 50.53828
 2018-Dec-05 06:53     09 52 30.455340 -20 07 50.38194
 2018-Dec-05 06:54     09 52 30.485966 -20 07 50.22548
 2018-Dec-05 06:55     09 52 30.516571 -20 07 50.06890
 2018-Dec-05 06:56     09 52 30.547152 -20 07 49.91220
 2018-Dec-05 06:57     09 52 30.577712 -20 07 49.75537
 2018-Dec-05 06:58     09 52 30.608249 -20 07 49.59842
 2018-Dec-05 06:59     09 52 30.638765 -20 07 49.44134
 2018-Dec-05 07:00     09 52 30.669259 -20 07 49.28414
 2018-Dec-05 07:01     09 52 30.699731 -20 07 49.12682
 2018-Dec-05 07:02     09 52 30.730181 -20 07 48.96936
 2018-Dec-05 07:03     09 52 30.760610 -20 07 48.81178
 2018-Dec-05 07:04     09 52 30.791017 -20 07 48.65408
 2018-Dec-05 07:05     09 52 30.821403 -20 07 48.49624
 2018-Dec-05 07:06     09 52 30.851768 -20 07 48.33828
 2018-Dec-05 07:07     09 52 30.882112 -20 07 48.18019
 2018-Dec-05 07:08     09 52 30.912434 -20 07 48.02197
 2018-Dec-05 07:09     09 52 30.942736 -20 07 47.86363
 2018-Dec-05 07:10     09 52 30.973017 -20 07 47.70515
 2018-Dec-05 07:11     09 52 31.003278 -20 07 47.54654
 2018-Dec-05 07:12     09 52 31.033517 -20 07 47.38781
 2018-Dec-05 07:13     09 52 31.063737 -20 07 47.22894
 2018-Dec-05 07:14     09 52 31.093936 -20 07 47.06994
 2018-Dec-05 07:15     09 52 31.124115 -20 07 46.91081
 2018-Dec-05 07:16     09 52 31.154273 -20 07 46.75155
 2018-Dec-05 07:17     09 52 31.184412 -20 07 46.59216
 2018-Dec-05 07:18     09 52 31.214531 -20 07 46.43263
 2018-Dec-05 07:19     09 52 31.244630 -20 07 46.27297
 2018-Dec-05 07:20     09 52 31.274709 -20 07 46.11318
 2018-Dec-05 07:21     09 52 31.304769 -20 07 45.95326
 2018-Dec-05 07:22     09 52 31.334810 -20 07 45.79320
 2018-Dec-05 07:23     09 52 31.364831 -20 07 45.63300
 2018-Dec-05 07:24     09 52 31.394833 -20 07 45.47267
 2018-Dec-05 07:25     09 52 31.424815 -20 07 45.31220
 2018-Dec-05 07:26     09 52 31.454779 -20 07 45.15160
 2018-Dec-05 07:27     09 52 31.484724 -20 07 44.99087
 2018-Dec-05 07:28     09 52 31.514650 -20 07 44.82999
 2018-Dec-05 07:29     09 52 31.544558 -20 07 44.66898
 2018-Dec-05 07:30     09 52 31.574447 -20 07 44.50784
 2018-Dec-05 07:31     09 52 31.604318 -20 07 44.34655
 2018-Dec-05 07:32     09 52 31.634170 -20 07 44.18513
 2018-Dec-05 07:33     09 52 31.664004 -20 07 44.02357
 2018-Dec-05 07:34     09 52 31.693820 -20 07 43.86187
 2018-Dec-05 07:35     09 52 31.723619 -20 07 43.70003
 2018-Dec-05 07:36     09 52 31.753399 -20 07 43.53805
 2018-Dec-05 07:37     09 52 31.783162 -20 07 43.37593
 2018-Dec-05 07:38     09 52 31.812907 -20 07 43.21367
 2018-Dec-05 07:39     09 52 31.842635 -20 07 43.05128
 2018-Dec-05 07:40     09 52 31.872345 -20 07 42.88874
 2018-Dec-05 07:41     09 52 31.902038 -20 07 42.72606
 2018-Dec-05 07:42     09 52 31.931714 -20 07 42.56324
 2018-Dec-05 07:43     09 52 31.961373 -20 07 42.40027
 2018-Dec-05 07:44     09 52 31.991016 -20 07 42.23717
 2018-Dec-05 07:45     09 52 32.020641 -20 07 42.07392
 2018-Dec-05 07:46     09 52 32.050250 -20 07 41.91053
 2018-Dec-05 07:47     09 52 32.079843 -20 07 41.74700
 2018-Dec-05 07:48     09 52 32.109419 -20 07 41.58332
 2018-Dec-05 07:49     09 52 32.138979 -20 07 41.41950
 2018-Dec-05 07:50     09 52 32.168522 -20 07 41.25553
 2018-Dec-05 07:51     09 52 32.198050 -20 07 41.09143
 2018-Dec-05 07:52     09 52 32.227562 -20 07 40.92717
 2018-Dec-05 07:53     09 52 32.257058 -20 07 40.76277
